OBJECT_NAME,OBJECT_ID,EPOCH,MEAN_MOTION,ECCENTRICITY,INCLINATION,RA_OF_ASC_NODE,ARG_OF_PERICENTER,MEAN_ANOMALY,EPHEMERIS_TYPE,CLASSIFICATION_TYPE,NORAD_CAT_ID,ELEMENT_SET_NO,REV_AT_EPOCH,BSTAR,MEAN_MOTION_DOT,MEAN_MOTION_DDOT
STARLINK-31022,2023-203R,2026-07-01T09:08:26.774016,15.27776626,.00024503,43.0007,148.9196,257.6632,102.3945,0,U,58633,999,14213,-.16572476E-2,-.45862E-3,0
STARLINK-31025,2023-203S,2026-06-30T22:19:09.555744,15.27578463,.0000913,43.0011,147.1840,271.7795,88.2952,0,U,58634,999,14211,.30162E-4,.568E-5,0
STARLINK-31018,2023-203T,2026-07-01T08:50:45.055392,15.27549401,.00018349,43.0018,145.3942,248.1241,111.9416,0,U,58635,999,14217,.22182501E-3,.5841E-4,0
STARLINK-31008,2023-203U,2026-07-01T04:11:57.832224,15.27579423,.00012335,43.0019,146.5221,268.8888,91.1822,0,U,58636,999,14214,.41683406E-4,.885E-5,0
STARLINK-31077,2023-203V,2026-07-01T14:00:01.999872,15.27609559,.00013541,43.0016,144.1301,279.2059,204.6569,0,U,58637,999,555,-.82067452E-3,-.22796E-3,0
STARLINK-31078,2023-203W,2026-07-01T08:39:36.399744,15.27593764,.00012045,43.0022,145.3355,263.0094,97.0621,0,U,58638,999,14094,.90538014E-4,.2231E-4,0
STARLINK-31070,2023-203X,2026-07-01T04:17:30.573312,15.27572484,.00013182,42.9997,146.5462,252.2020,107.8688,0,U,58639,999,14091,.86312991E-4,.2113E-4,0
STARLINK-31090,2023-203Y,2026-07-01T03:45:23.537088,15.27583834,.00013672,43.0015,138.5987,273.4512,86.6183,0,U,58640,999,14101,.44327458E-4,.958E-5,0
STARLINK-31113,2023-211B,2026-07-01T05:40:50.658816,15.27580044,.0000993,42.9987,163.7241,277.8612,82.2127,0,U,58668,999,13983,.26268E-4,.461E-5,0
STARLINK-31128,2023-211C,2026-07-01T06:04:54.412320,15.27587344,.0001776,43.0025,163.8504,275.9409,84.1240,0,U,58669,999,13983,.75628E-4,.182E-4,0
STARLINK-31083,2023-211D,2026-07-01T05:35:18.228768,15.27577563,.0000978,43.0001,163.6976,275.9690,84.1050,0,U,58670,999,13983,.34669E-4,.692E-5,0
STARLINK-30828,2023-211E,2026-07-01T00:03:05.031648,15.27576398,.00010626,43.0020,165.4057,271.3618,88.7112,0,U,58671,999,13979,.2168005E-5,-.202E-5,0
STARLINK-31104,2023-211F,2026-07-01T14:00:01.999872,15.55495699,.00223742,42.9894,144.8524,154.7477,96.4668,0,U,58672,999,590,.30998245E-2,.225538E-2,0
STARLINK-31131,2023-211G,2026-06-30T21:52:07.445856,15.27583723,.0001111,43.0018,155.0686,281.1973,78.8753,0,U,58673,999,14118,.51501E-5,-.12E-5,0
STARLINK-31124,2023-211H,2026-07-01T05:46:24.206880,15.27577395,.0001187,43.0002,163.7530,275.7451,84.3265,0,U,58674,999,13983,.21269E-4,.323E-5,0
STARLINK-31126,2023-211J,2026-07-01T05:24:11.988864,15.27578085,.00010849,43.0015,163.6322,267.6667,92.4061,0,U,58675,999,13983,.23234079E-4,.377E-5,0
STARLINK-31066,2023-211K,2026-06-30T19:49:57.821088,15.27577276,.0001545,43.0031,312.1279,269.0619,91.0056,0,U,58676,999,13933,.28786E-4,.53E-5,0
STARLINK-31058,2023-211L,2026-07-01T10:32:33.674496,15.27584607,.00012157,42.9994,162.6650,275.4433,84.6280,0,U,58677,999,13986,.56166982E-4,.1284E-4,0
STARLINK-31125,2023-211M,2026-07-01T00:06:45.764640,15.27571973,.00017598,43.0051,165.4235,259.6379,100.4274,0,U,58678,999,14096,.32242199E-3,.8618E-4,0
STARLINK-31110,2023-211N,2026-07-01T05:55:39.739008,15.27568704,.0001016,43.0011,163.8003,275.8861,84.1875,0,U,58679,999,13983,-.20275E-4,-.82E-5,0
STARLINK-31112,2023-211P,2026-07-01T09:15:07.203456,15.27536670,.00019184,43.0019,163.1205,271.7392,88.3240,0,U,58680,999,14103,-.18684602E-3,-.5393E-4,0
STARLINK-31147,2023-211Q,2026-07-01T09:37:16.045824,15.27580739,.0001093,43.0025,163.2422,272.4047,87.6680,0,U,58681,999,13985,.88623196E-4,.2177E-4,0
STARLINK-31144,2023-211R,2026-07-01T05:27:54.201024,15.27584971,.00018142,43.0012,163.6514,272.7575,87.3069,0,U,58682,999,13983,.2552096E-5,-.192E-5,0
STARLINK-31095,2023-211S,2026-07-01T05:13:18.099840,15.27583883,.00015141,43.0021,164.4402,267.6965,92.3713,0,U,58683,999,14109,.57121983E-4,.131E-4,0
STARLINK-31107,2023-211T,2026-07-01T10:05:03.069888,15.27578804,.00018184,43.0025,163.3804,286.4129,73.6523,0,U,58684,999,13985,.46078031E-4,.1006E-4,0
STARLINK-31121,2023-211U,2026-07-01T05:33:27.355968,15.27575213,.0001261,43.0020,163.6818,269.8417,90.2291,0,U,58685,999,13983,.18569E-4,.249E-5,0
STARLINK-31137,2023-211V,2026-07-01T00:08:38.013792,15.27604719,.00017827,43.0053,165.4344,268.6302,91.4345,0,U,58686,999,13979,.93429071E-3,.25556E-3,0
STARLINK-31106,2023-211Y,2026-07-01T06:14:09.475296,15.27601998,.0002261,43.0046,163.9001,290.1679,69.8930,0,U,58689,999,13983,.29798E-3,.7952E-4,0
STARLINK-11072 [DTC],2024-002A,2026-06-29T23:29:02.309280,15.69707613,.00008495,53.1583,80.4731,84.5840,275.5275,0,U,58705,999,14407,.894835E-5,.496E-5,0
STARLINK-11075 [DTC],2024-002B,2026-07-01T09:48:18.834048,15.69905901,.00003567,53.1600,73.0377,164.5994,195.5035,0,U,58706,999,14430,-.29236043E-3,-.3614E-3,0
STARLINK-11077 [DTC],2024-002C,2026-06-29T23:43:09.722208,15.69700370,.00011042,53.1598,80.5240,67.3243,292.7891,0,U,58707,999,14407,.23042798E-4,.2203E-4,0
STARLINK-11079 [DTC],2024-002D,2026-06-30T23:48:55.090656,15.69702844,.00009285,53.1585,75.4152,80.3842,279.7281,0,U,58708,999,14423,.4945485E-5,.11E-6,0
STARLINK-11076 [DTC],2024-002E,2026-06-30T23:41:50.836416,15.69708594,.00008127,53.1583,75.3841,84.8537,275.2573,0,U,58709,999,14423,.2219382E-4,.2101E-4,0
STARLINK-11078 [DTC],2024-002F,2026-06-30T23:34:46.978752,15.69709784,.0000995,53.1590,75.3552,80.4513,279.6617,0,U,58710,999,14423,.8948175E-5,.496E-5,0
STARLINK-31031,2024-002G,2026-06-30T22:46:57.061920,15.34399240,.0001223,53.1596,62.6042,86.2667,273.8476,0,U,58711,999,13937,.38608E-4,.928E-5,0
STARLINK-31029,2024-002H,2026-07-01T09:01:02.434368,15.30195394,.00013341,53.1605,61.7010,95.2188,264.8965,0,U,58712,999,13942,.81375098E-4,.2051E-4,0
STARLINK-30973,2024-002J,2026-07-01T09:10:10.260480,15.30185307,.00011867,53.1603,61.7430,94.8800,265.2337,0,U,58713,999,13942,-.5398289E-5,-.519E-5,0
STARLINK-31100,2024-002K,2026-07-01T09:14:42.410976,15.30218970,.00012151,53.1610,61.7606,72.5900,287.5233,0,U,58714,999,13942,-.98648696E-4,-.3281E-4,0
STARLINK-31102,2024-002L,2026-07-01T09:01:13.973088,15.34394146,.00011493,53.1610,60.9932,84.5359,275.5775,0,U,58715,999,13943,.7470991E-4,.2148E-4,0
STARLINK-31098,2024-002M,2026-07-01T09:17:44.974176,15.30203017,.00011349,53.1607,61.7715,99.6917,260.4212,0,U,58716,999,13942,.26712387E-4,.432E-5,0
STARLINK-31093,2024-002N,2026-07-01T15:44:36.031776,15.30198981,.00014036,53.1610,60.6176,96.5917,263.5243,0,U,58717,999,13946,.32636724E-4,.607E-5,0
STARLINK-31097,2024-002P,2026-07-01T09:23:48.366528,15.30219025,.00014905,53.1629,61.7954,99.6389,260.4780,0,U,58718,999,13942,-.28885495E-4,-.1215E-4,0
STARLINK-31051,2024-002Q,2026-07-01T15:47:38.428224,15.30204719,.00013183,53.1606,60.6142,87.7593,272.3559,0,U,58719,999,13946,.43192159E-4,.92E-5,0
STARLINK-31027,2024-002R,2026-07-01T07:32:53.353824,15.74004634,.00051896,53.1398,31.7328,9.6607,350.4511,0,U,58720,999,13983,.97945094E-3,.144224E-2,0
STARLINK-30972,2024-002S,2026-07-01T15:27:53.327808,15.30198711,.00010877,53.1597,60.5298,104.9328,255.1793,0,U,58721,999,13946,.15309359E-3,.4178E-4,0
STARLINK-31040,2024-002T,2026-07-01T14:55:11.485344,15.34402709,.00013383,53.1619,59.6777,96.5050,263.6105,0,U,58722,999,13947,.50029415E-4,.1314E-4,0
STARLINK-31033,2024-002U,2026-07-01T15:38:31.418592,15.30213703,.00014605,53.1622,60.5736,87.2039,272.9129,0,U,58723,999,13946,-.83114006E-4,-.2821E-4,0
STARLINK-30893,2024-002V,2026-07-01T00:35:53.087136,15.34401700,.00012446,53.1591,62.3615,109.2413,250.8725,0,U,58724,999,13937,.96129866E-4,.2873E-4,0
STARLINK-30856,2024-002W,2026-07-01T12:24:20.680128,15.30194850,.00013056,53.1602,61.1561,94.5735,265.5414,0,U,58725,999,13944,.93119493E-4,.2399E-4,0
STARLINK-31115,2024-005B,2026-07-01T00:51:00.459072,15.27576876,.00010628,43.0027,300.0382,273.5248,86.5482,0,U,58729,999,13776,-.17667482E-4,-.748E-5,0
STARLINK-31180,2024-005E,2026-06-30T17:46:18.039648,15.27573369,.00013386,43.0035,301.2844,265.0420,95.0279,0,U,58732,999,13772,-.37730312E-4,-.13E-4,0
STARLINK-31164,2024-005F,2026-07-01T01:01:53.649984,15.27581883,.00014905,43.0051,299.2495,262.5594,97.5088,0,U,58733,999,13777,.54462703E-4,.1237E-4,0
STARLINK-31152,2024-005G,2026-07-01T01:07:26.903424,15.27585198,.000119,43.0076,299.2754,262.7857,97.2860,0,U,58734,999,13778,.50493441E-4,.1128E-4,0
STARLINK-31157,2024-005H,2026-07-01T15:20:23.686656,15.27583545,.00019194,43.0029,295.9831,258.1773,101.8864,0,U,58735,999,13787,.52233043E-4,.1175E-4,0
STARLINK-31076,2024-005J,2026-07-01T01:18:32.320800,15.27610228,.00011934,43.0048,299.3325,262.8209,97.2507,0,U,58736,999,13782,-.21051281E-3,-.6056E-4,0
STARLINK-31101,2024-005K,2026-07-01T15:40:45.186528,15.27582925,.00014309,43.0035,296.0860,255.4700,104.5993,0,U,58737,999,13786,.72152936E-4,.1724E-4,0
STARLINK-31108,2024-005L,2026-06-30T17:33:18.235584,15.27577651,.00020862,43.0054,301.2074,256.6597,103.4023,0,U,58738,999,13772,.19284007E-3,.5047E-4,0
STARLINK-31042,2024-005M,2026-06-30T17:48:07.849728,15.27565998,.00012681,43.0014,301.2783,271.4580,88.6126,0,U,58739,999,13773,.13988982E-3,.3588E-4,0
STARLINK-31159,2024-005N,2026-07-01T01:00:02.806560,15.27581410,.00009959,43.0005,299.2342,267.5116,92.5621,0,U,58740,999,13787,-.1588394E-4,-.699E-5,0
STARLINK-31148,2024-005P,2026-07-01T15:18:32.457888,15.27588690,.00017627,43.0066,295.9816,269.5563,90.5087,0,U,58741,999,13787,.1000938E-3,.2494E-4,0
STARLINK-31151,2024-005Q,2026-07-01T01:22:14.316096,15.27598586,.0001501,43.0042,299.3675,269.3124,90.7556,0,U,58742,999,13787,-.95231063E-4,-.2883E-4,0
STARLINK-31156,2024-005R,2026-07-01T15:35:12.254496,15.27580973,.00014986,43.0017,296.0758,275.0952,84.9728,0,U,58743,999,13792,.12856481E-3,.3277E-4,0
STARLINK-31167,2024-005S,2026-07-01T04:49:20.627616,15.27612505,.00015737,43.0018,153.2552,259.9199,100.1475,0,U,58744,999,13956,-.18859369E-3,-.5453E-4,0
STARLINK-31176,2024-005T,2026-06-30T16:23:11.558688,15.27590308,.00012854,43.0019,301.7124,275.1836,84.8869,0,U,58745,999,13776,.16163095E-3,.419E-4,0
